NOAA 17                 
1 27453U 02032A   26095.19481936  .00000326  00000+0  15515-3 0  9991
2 27453  98.8589  60.1130 0011186 198.3864 161.6912 14.26205486236585
NOAA 18                 
1 28654U 05018A   26095.22403048  .00000103  00000+0  77766-4 0  9994
2 28654  98.8123 175.9552 0014174   2.9936 357.1319 14.13716639 76001
NOAA 19                 
1 33591U 09005A   26095.13916190  .00000085  00000+0  68931-4 0  9990
2 33591  98.9560 165.9483 0012943 234.0597 125.9375 14.13462370884165
SUOMI NPP               
1 37849U 11061A   26095.24606866  .00000137  00000+0  85859-4 0  9999
2 37849  98.7904  36.6421 0002049 142.5803 217.5516 14.19501168748091
NOAA 20 (JPSS-1)        
1 43013U 17073A   26095.26027394  .00000111  00000+0  73659-4 0  9990
2 43013  98.7725  35.3884 0002044 101.7994 258.3412 14.19543353434120
NOAA 21 (JPSS-2)        
1 54234U 22150A   26095.29468217  .00000153  00000+0  93420-4 0  9999
2 54234  98.7586  35.2607 0002630  60.0955 300.0482 14.19559709176205
