[{"OBJECT_NAME":"NOAA 17","OBJECT_ID":"2002-032A","EPOCH":"2026-04-05T04:40:32.392704","MEAN_MOTION":14.26205486,"ECCENTRICITY":0.00111868,"INCLINATION":98.8589,"RA_OF_ASC_NODE":60.113,"ARG_OF_PERICENTER":198.3864,"MEAN_ANOMALY":161.6912,"EPHEMERIS_TYPE":0,"CLASSIFICATION_TYPE":"U","NORAD_CAT_ID":27453,"ELEMENT_SET_NO":999,"REV_AT_EPOCH":23658,"BSTAR":0.00015515,"MEAN_MOTION_DOT":3.26e-6,"MEAN_MOTION_DDOT":0},{"OBJECT_NAME":"NOAA 18","OBJECT_ID":"2005-018A","EPOCH":"2026-04-05T05:22:36.233472","MEAN_MOTION":14.13716639,"ECCENTRICITY":0.00141744,"INCLINATION":98.8123,"RA_OF_ASC_NODE":175.9552,"ARG_OF_PERICENTER":2.9936,"MEAN_ANOMALY":357.1319,"EPHEMERIS_TYPE":0,"CLASSIFICATION_TYPE":"U","NORAD_CAT_ID":28654,"ELEMENT_SET_NO":999,"REV_AT_EPOCH":7600,"BSTAR":7.7765702e-5,"MEAN_MOTION_DOT":1.03e-6,"MEAN_MOTION_DDOT":0},{"OBJECT_NAME":"NOAA 19","OBJECT_ID":"2009-005A","EPOCH":"2026-04-05T03:20:23.588160","MEAN_MOTION":14.1346237,"ECCENTRICITY":0.00129433,"INCLINATION":98.956,"RA_OF_ASC_NODE":165.9483,"ARG_OF_PERICENTER":234.0597,"MEAN_ANOMALY":125.9375,"EPHEMERIS_TYPE":0,"CLASSIFICATION_TYPE":"U","NORAD_CAT_ID":33591,"ELEMENT_SET_NO":999,"REV_AT_EPOCH":88416,"BSTAR":6.8931422e-5,"MEAN_MOTION_DOT":8.5e-7,"MEAN_MOTION_DDOT":0},{"OBJECT_NAME":"SUOMI NPP","OBJECT_ID":"2011-061A","EPOCH":"2026-04-05T05:54:20.332224","MEAN_MOTION":14.19501168,"ECCENTRICITY":0.00020494,"INCLINATION":98.7904,"RA_OF_ASC_NODE":36.6421,"ARG_OF_PERICENTER":142.5803,"MEAN_ANOMALY":217.5516,"EPHEMERIS_TYPE":0,"CLASSIFICATION_TYPE":"U","NORAD_CAT_ID":37849,"ELEMENT_SET_NO":999,"REV_AT_EPOCH":74809,"BSTAR":8.585865e-5,"MEAN_MOTION_DOT":1.37e-6,"MEAN_MOTION_DDOT":0},{"OBJECT_NAME":"NOAA 20 (JPSS-1)","OBJECT_ID":"2017-073A","EPOCH":"2026-04-05T06:14:47.668416","MEAN_MOTION":14.19543353,"ECCENTRICITY":0.00020443,"INCLINATION":98.7725,"RA_OF_ASC_NODE":35.3884,"ARG_OF_PERICENTER":101.7994,"MEAN_ANOMALY":258.3412,"EPHEMERIS_TYPE":0,"CLASSIFICATION_TYPE":"U","NORAD_CAT_ID":43013,"ELEMENT_SET_NO":999,"REV_AT_EPOCH":43412,"BSTAR":7.3658953e-5,"MEAN_MOTION_DOT":1.11e-6,"MEAN_MOTION_DDOT":0},{"OBJECT_NAME":"NOAA 21 (JPSS-2)","OBJECT_ID":"2022-150A","EPOCH":"2026-04-05T07:04:20.539488","MEAN_MOTION":14.19559709,"ECCENTRICITY":0.00026304,"INCLINATION":98.7586,"RA_OF_ASC_NODE":35.2607,"ARG_OF_PERICENTER":60.0955,"MEAN_ANOMALY":300.0482,"EPHEMERIS_TYPE":0,"CLASSIFICATION_TYPE":"U","NORAD_CAT_ID":54234,"ELEMENT_SET_NO":999,"REV_AT_EPOCH":17620,"BSTAR":9.3420096e-5,"MEAN_MOTION_DOT":1.53e-6,"MEAN_MOTION_DDOT":0}]
